{"fetched_at":"2026-03-29T16:36:15Z","count":15609,"tles":[{"name":"STARLINK-4775","line1":"1 53934U 22119BA  26087.82679194  .00001136  00000+0  89429-4 0  9994","line2":"2 53934  53.2169 213.2599 0001220  88.2642 271.8490 15.08842114194940","category":"Starlink"}]}