{
  "norad_id": 53934,
  "name": "STARLINK-4775",
  "history": [
    {
      "epoch": "2026-03-28T19:50:34.823616Z",
      "apogee_km": 540.581115474718,
      "perigee_km": 538.8927391640163,
      "latitude_deg": 8.765313603466615e-06,
      "longitude_deg": 89.37314889725408,
      "height_km": 540.6072024139933,
      "semi_major_axis_km": 6917.873927319367,
      "eccentricity": 0.00012203,
      "inclination_deg": 53.2169,
      "raan_deg": 213.2599,
      "arg_perigee_deg": 88.2642,
      "mean_anomaly_deg": 271.849,
      "mean_motion_rev_day": 15.08842114
    }
  ]
}